*******************************************************************************
 Revised: Jun 17, 2016           Callisto / (Jupiter)                       504

 SATELLITE PHYSICAL PROPERTIES:
  Radius (km)             = 2403   +- 5     Density (g cm^-3)   = 1.851 +- .004
  Mass (10^20 kg )        = 1076   +- 1     Geometric Albedo    =  0.20 

 SATELLITE ORBITAL DATA:
  Semi-major axis, a (km) = 1883  (10^3)    Orbital period      = 16.689018 d
  Eccentricity, e         = 0.007           Rotational period   = Synchronous
  Inclination, i  (deg)   = 0.281
*******************************************************************************
 
 
*******************************************************************************
Ephemeris / WWW_USER Mon Jan 23 07:50:19 2017 Pasadena, USA      / Horizons    
*******************************************************************************
Target body name: Callisto (504)                  {source: jup310}
Center body name: Jupiter (599)                   {source: jup310}
Center-site name: BODYCENTRIC
*******************************************************************************
Start time      : A.D. 2016-Nov-01 00:00:00.0000 UT      
Stop  time      : A.D. 2016-Dec-01 00:00:00.0000 UT      
Step-size       : 60 minutes
*******************************************************************************
Target pole/equ : IAU_CALLISTO                    {East-longitude -}
Target radii    : 2410.3 x 2410.3 x 2410.3 km     {Equator, meridian, pole}    
Center geodetic : 0.00000000,0.00000000,0.0000000 {E-lon(deg),Lat(deg),Alt(km)}
Center cylindric: 0.00000000,0.00000000,0.0000000 {E-lon(deg),Dxy(km),Dz(km)}
Center pole/equ : IAU_JUPITER                     {East-longitude -}
Center radii    : 71492.0 x 71492.0 x 66854.0 km  {Equator, meridian, pole}    
Target primary  : Jupiter
Vis. interferer : GANYMEDE (R_eq= 2631.200) km    {source: jup310}
Rel. light bend : Sun, JUPITER                    {source: jup310}
Rel. lght bnd GM: 1.3271E+11, 1.2669E+08 km^3/s^2                              
Atmos refraction: NO (AIRLESS)
RA format       : DEG
Time format     : CAL 
EOP file        : eop.170120.p170413                                           
EOP coverage    : DATA-BASED 1962-JAN-20 TO 2017-JAN-20. PREDICTS-> 2017-APR-12
Units conversion: 1 au= 149597870.700 km, c= 299792.458 km/s, 1 day= 86400.0 s 
Table cut-offs 1: Elevation (-90.0deg=NO ),Airmass     n.a.    , Daylight (NO )
Table cut-offs 2: Solar Elongation (  0.0,180.0=NO ),Local Hour Angle( 0.0=NO )
Table format    : Comma Separated Values (spreadsheet)
*******************************************************************************
 Date__(UT)__HR:MN:SS, , ,   ObsEcLon,   ObsEcLat,
**************************************************
$$SOE
 2016-Nov-06 21:00:00, , ,355.5472252,  0.6223700,
 2016-Nov-06 22:00:00, , ,356.4588301,  0.6520983,
 2016-Nov-06 23:00:00, , ,357.3704831,  0.6816627,
 2016-Nov-07 00:00:00, , ,358.2821806,  0.7110558,
 2016-Nov-07 01:00:00, , ,359.1939186,  0.7402697,
 2016-Nov-07 02:00:00, , ,  0.1056931,  0.7692971,
 2016-Nov-07 03:00:00, , ,  1.0174999,  0.7981304,
 2016-Nov-07 04:00:00, , ,  1.9293348,  0.8267620,
 2016-Nov-07 05:00:00, , ,  2.8411935,  0.8551847,
 2016-Nov-07 06:00:00, , ,  3.7530714,  0.8833910,
 2016-Nov-07 07:00:00, , ,  4.6649642,  0.9113736,
 2016-Nov-07 08:00:00, , ,  5.5768674,  0.9391252,
 2016-Nov-07 09:00:00, , ,  6.4887763,  0.9666388,
 2016-Nov-07 10:00:00, , ,  7.4006867,  0.9939071,
 2016-Nov-07 11:00:00, , ,  8.3125939,  1.0209232,
 2016-Nov-07 12:00:00, , ,  9.2244937,  1.0476800,
 2016-Nov-07 13:00:00, , , 10.1363816,  1.0741706,
 2016-Nov-07 14:00:00, , , 11.0482536,  1.1003883,
 2016-Nov-07 15:00:00, , , 11.9601054,  1.1263263,
 2016-Nov-07 16:00:00, , , 12.8719332,  1.1519779,
 2016-Nov-07 17:00:00, , , 13.7837330,  1.1773365,
 2016-Nov-07 18:00:00, , , 14.6955014,  1.2023957,
 2016-Nov-07 19:00:00, , , 15.6072347,  1.2271491,
 2016-Nov-07 20:00:00, , , 16.5189297,  1.2515903,
 2016-Nov-07 21:00:00, , , 17.4305834,  1.2757132,
 2016-Nov-07 22:00:00, , , 18.3421927,  1.2995115,
 2016-Nov-07 23:00:00, , , 19.2537550,  1.3229794,
 2016-Nov-08 00:00:00, , , 20.1652676,  1.3461107,
 2016-Nov-08 01:00:00, , , 21.0767282,  1.3688998,
 2016-Nov-08 02:00:00, , , 21.9881345,  1.3913408,
 2016-Nov-08 03:00:00, , , 22.8994844,  1.4134281,
 2016-Nov-08 04:00:00, , , 23.8107758,  1.4351561,
 2016-Nov-08 05:00:00, , , 24.7220068,  1.4565194,
 2016-Nov-08 06:00:00, , , 25.6331756,  1.4775127,
 2016-Nov-08 07:00:00, , , 26.5442803,  1.4981307,
 2016-Nov-08 08:00:00, , , 27.4553191,  1.5183681,
 2016-Nov-08 09:00:00, , , 28.3662902,  1.5382201,
 2016-Nov-08 10:00:00, , , 29.2771918,  1.5576816,
 2016-Nov-08 11:00:00, , , 30.1880218,  1.5767477,
 2016-Nov-08 12:00:00, , , 31.0987785,  1.5954138,
 2016-Nov-08 13:00:00, , , 32.0094595,  1.6136751,
 2016-Nov-08 14:00:00, , , 32.9200629,  1.6315272,
 2016-Nov-08 15:00:00, , , 33.8305861,  1.6489656,
 2016-Nov-08 16:00:00, , , 34.7410269,  1.6659860,
 2016-Nov-08 17:00:00, , , 35.6513825,  1.6825842,
 2016-Nov-08 18:00:00, , , 36.5616502,  1.6987561,
 2016-Nov-08 19:00:00, , , 37.4718272,  1.7144976,
 2016-Nov-08 20:00:00, , , 38.3819103,  1.7298049,
 2016-Nov-08 21:00:00, , , 39.2918964,  1.7446742,
 2016-Nov-08 22:00:00, , , 40.2017821,  1.7591019,
 2016-Nov-08 23:00:00, , , 41.1115640,  1.7730844,
 2016-Nov-09 00:00:00, , , 42.0212384,  1.7866184,
 2016-Nov-09 01:00:00, , , 42.9308018,  1.7997005,
 2016-Nov-09 02:00:00, , , 43.8402502,  1.8123276,
 2016-Nov-09 03:00:00, , , 44.7495800,  1.8244966,
 2016-Nov-09 04:00:00, , , 45.6587870,  1.8362046,
 2016-Nov-09 05:00:00, , , 46.5678675,  1.8474488,
 2016-Nov-09 06:00:00, , , 47.4768175,  1.8582266,
 2016-Nov-09 07:00:00, , , 48.3856330,  1.8685353,
 2016-Nov-09 08:00:00, , , 49.2943100,  1.8783727,
 2016-Nov-09 09:00:00, , , 50.2028447,  1.8877363,
 2016-Nov-09 10:00:00, , , 51.1112333,  1.8966241,
 2016-Nov-09 11:00:00, , , 52.0194719,  1.9050340,
 2016-Nov-09 12:00:00, , , 52.9275570,  1.9129641,
 2016-Nov-09 13:00:00, , , 53.8354850,  1.9204127,
 2016-Nov-09 14:00:00, , , 54.7432525,  1.9273782,
 2016-Nov-09 15:00:00, , , 55.6508563,  1.9338590,
 2016-Nov-09 16:00:00, , , 56.5582933,  1.9398538,
 2016-Nov-09 17:00:00, , , 57.4655609,  1.9453613,
 2016-Nov-09 18:00:00, , , 58.3726563,  1.9503805,
 2016-Nov-09 19:00:00, , , 59.2795772,  1.9549104,
 2016-Nov-09 20:00:00, , , 60.1863214,  1.9589500,
 2016-Nov-09 21:00:00, , , 61.0928869,  1.9624988,
 2016-Nov-09 22:00:00, , , 61.9992722,  1.9655561,
 2016-Nov-09 23:00:00, , , 62.9054755,  1.9681215,
 2016-Nov-10 00:00:00, , , 63.8114958,  1.9701945,
 2016-Nov-10 01:00:00, , , 64.7173318,  1.9717751,
 2016-Nov-10 02:00:00, , , 65.6229826,  1.9728631,
 2016-Nov-10 03:00:00, , , 66.5284474,  1.9734586,
 2016-Nov-10 04:00:00, , , 67.4337255,  1.9735617,
 2016-Nov-10 05:00:00, , , 68.3388165,  1.9731727,
 2016-Nov-10 06:00:00, , , 69.2437198,  1.9722920,
 2016-Nov-10 07:00:00, , , 70.1484350,  1.9709202,
 2016-Nov-10 08:00:00, , , 71.0529617,  1.9690578,
 2016-Nov-10 09:00:00, , , 71.9572996,  1.9667057,
 2016-Nov-10 10:00:00, , , 72.8614482,  1.9638647,
 2016-Nov-10 11:00:00, , , 73.7654072,  1.9605359,
 2016-Nov-10 12:00:00, , , 74.6691759,  1.9567204,
 2016-Nov-10 13:00:00, , , 75.5727540,  1.9524194,
 2016-Nov-10 14:00:00, , , 76.4761407,  1.9476343,
 2016-Nov-10 15:00:00, , , 77.3793353,  1.9423665,
 2016-Nov-10 16:00:00, , , 78.2823370,  1.9366178,
 2016-Nov-10 17:00:00, , , 79.1851447,  1.9303898,
 2016-Nov-10 18:00:00, , , 80.0877575,  1.9236843,
 2016-Nov-10 19:00:00, , , 80.9901740,  1.9165034,
 2016-Nov-10 20:00:00, , , 81.8923931,  1.9088491,
 2016-Nov-10 21:00:00, , , 82.7944132,  1.9007235,
 2016-Nov-10 22:00:00, , , 83.6962328,  1.8921292,
 2016-Nov-10 23:00:00, , , 84.5978503,  1.8830684,
 2016-Nov-11 00:00:00, , , 85.4992639,  1.8735437,
 2016-Nov-11 01:00:00, , , 86.4004718,  1.8635579,
 2016-Nov-11 02:00:00, , , 87.3014722,  1.8531136,
 2016-Nov-11 03:00:00, , , 88.2022632,  1.8422139,
 2016-Nov-11 04:00:00, , , 89.1028428,  1.8308617,
 2016-Nov-11 05:00:00, , , 90.0032091,  1.8190601,
 2016-Nov-11 06:00:00, , , 90.9033604,  1.8068124,
 2016-Nov-11 07:00:00, , , 91.8032947,  1.7941220,
 2016-Nov-11 08:00:00, , , 92.7030102,  1.7809923,
 2016-Nov-11 09:00:00, , , 93.6025054,  1.7674268,
 2016-Nov-11 10:00:00, , , 94.5017785,  1.7534293,
 2016-Nov-11 11:00:00, , , 95.4008283,  1.7390036,
 2016-Nov-11 12:00:00, , , 96.2996534,  1.7241535,
 2016-Nov-11 13:00:00, , , 97.1982527,  1.7088829,
 2016-Nov-11 14:00:00, , , 98.0966253,  1.6931961,
 2016-Nov-11 15:00:00, , , 98.9947706,  1.6770970,
 2016-Nov-11 16:00:00, , , 99.8926881,  1.6605901,
 2016-Nov-11 17:00:00, , ,100.7903776,  1.6436797,
 2016-Nov-11 18:00:00, , ,101.6878391,  1.6263702,
 2016-Nov-11 19:00:00, , ,102.5850730,  1.6086661,
 2016-Nov-11 20:00:00, , ,103.4820799,  1.5905721,
 2016-Nov-11 21:00:00, , ,104.3788604,  1.5720929,
 2016-Nov-11 22:00:00, , ,105.2754157,  1.5532332,
 2016-Nov-11 23:00:00, , ,106.1717470,  1.5339979,
 2016-Nov-12 00:00:00, , ,107.0678558,  1.5143920,
 2016-Nov-12 01:00:00, , ,107.9637437,  1.4944205,
 2016-Nov-12 02:00:00, , ,108.8594126,  1.4740885,
 2016-Nov-12 03:00:00, , ,109.7548644,  1.4534011,
 2016-Nov-12 04:00:00, , ,110.6501012,  1.4323637,
 2016-Nov-12 05:00:00, , ,111.5451253,  1.4109814,
 2016-Nov-12 06:00:00, , ,112.4399389,  1.3892598,
 2016-Nov-12 07:00:00, , ,113.3345444,  1.3672042,
 2016-Nov-12 08:00:00, , ,114.2289441,  1.3448203,
 2016-Nov-12 09:00:00, , ,115.1231405,  1.3221135,
 2016-Nov-12 10:00:00, , ,116.0171357,  1.2990897,
 2016-Nov-12 11:00:00, , ,116.9109323,  1.2757545,
 2016-Nov-12 12:00:00, , ,117.8045325,  1.2521137,
 2016-Nov-12 13:00:00, , ,118.6979384,  1.2281732,
 2016-Nov-12 14:00:00, , ,119.5911522,  1.2039391,
 2016-Nov-12 15:00:00, , ,120.4841760,  1.1794172,
 2016-Nov-12 16:00:00, , ,121.3770116,  1.1546136,
 2016-Nov-12 17:00:00, , ,122.2696609,  1.1295346,
